CHUANGXIN 1-02 (CX-1-02)
1 33434U 08056B   26186.27787196  .00000142  00000+0  71601-4 0  9991
2 33434  98.6125 212.3638 0015531  87.3592 272.9368 14.30157167921200
STARS (KUKAI)           
1 33498U 09002G   26185.81231244  .00007292  00000+0  65663-3 0  9993
2 33498  98.1559 133.8416 0010276 108.0786 252.1554 14.95883529941112
KKS-1 (KISEKI)          
1 33499U 09002H   26185.73009765  .00001975  00000+0  24873-3 0  9996
2 33499  98.1181 108.4502 0006658 226.6782 133.3877 14.83172947938790
UK-DMC 2                
1 35683U 09041C   26186.32549449  .00000633  00000+0  99021-4 0  9998
2 35683  97.8864 320.8505 0001316 100.2862 259.8497 14.76082620909246
OCEANSAT-2              
1 35931U 09051A   26186.28550471 -.00000201  00000+0 -11157-3 0  9993
2 35931  98.2318 171.3303 0016670 182.2971 177.8122 13.99658298881861
SWISSCUBE               
1 35932U 09051B   26185.47808840  .00001528  00000+0  31098-3 0  9997
2 35932  98.4021  93.6669 0007217 148.5860 211.5774 14.62517748891680
BEESAT-1                
1 35933U 09051C   26185.70190184  .00001172  00000+0  24485-3 0  9996
2 35933  98.3947  93.4931 0005441 158.6227 201.5202 14.61750705891746
ITUPSAT1                
1 35935U 09051E   26185.70814032  .00001186  00000+0  25471-3 0  9994
2 35935  98.4031  92.6727 0007316 174.2685 185.8600 14.60469280891292
DMSP 5D-3 F18 (USA 210) 
1 35951U 09057A   26186.17359663  .00000300  00000+0  17846-3 0  9998
2 35951  98.9047 166.9043 0010631 194.1406 165.9471 14.14907301862130
PROBA-2                 
1 36037U 09059B   26185.98453645  .00000276  00000+0  74883-4 0  9996
2 36037  98.2456   9.0909 0012341 221.6439 138.3819 14.54870751884117
YAOGAN-7                
1 36110U 09069A   26185.41973833  .00000599  00000+0  89957-4 0  9999
2 36110  98.0049  71.1787 0024289 347.1078  12.9509 14.78027757892170
XIWANG-1 (HOPE-1)       
1 36122U 09072B   26186.25567351 -.00000285  00000+0 -63100-3 0  9998
2 36122 100.4037 139.8001 0007266 187.7051 172.3951 13.16438328795382
COSMOS 2463             
1 36519U 10017A   26185.57263387  .00000053  00000+0  40908-4 0  9998
2 36519  82.9591 236.9328 0037584  82.3512  85.4573 13.71666780810311
CARTOSAT-2B             
1 36795U 10035A   26186.27232278  .00000480  00000+0  72672-4 0  9994
2 36795  97.9938 236.7063 0012262 127.9443 232.2878 14.78607360862524
TISAT 1                 
1 36799U 10035E   26185.29489229  .00030047  00000+0  96087-3 0  9996
2 36799  98.0712 133.3699 0003634 140.6786 219.4718 15.32381693870328
YAOGAN-10               
1 36834U 10038A   26186.33659988  .00004952  00000+0  58091-3 0  9995
2 36834  97.8967 209.5965 0001616  86.8708 329.8715 14.85410572859902
SHIJIAN-6 04B (SJ-6 04B)
1 37180U 10051B   26186.30898707  .00001956  00000+0  16489-3 0  9992
2 37180  97.8732 191.9111 0006902 246.7079 113.3417 14.99374056858393
FENGYUN 3B              
1 37214U 10059A   26186.28019627  .00000407  00000+0  23376-3 0  9994
2 37214  98.9605 232.3708 0022850 133.5703 358.3454 14.14846680809988
COSMO-SKYMED 4          
1 37216U 10060A   26186.33403333  .00000486  00000+0  67636-4 0  9990
2 37216  97.8890   9.6701 0001459  86.8558 273.2823 14.82159994847259
O/OREOS (USA 219)       
1 37224U 10062C   26186.00964580  .00003431  00000+0  32832-3 0  9993
2 37224  71.9706  39.9659 0013360  25.4011 334.7814 14.93824417119304
RESOURCESAT-2           
1 37387U 11015A   26186.24778719  .00000138  00000+0  82915-4 0  9994
2 37387  98.7636 253.5642 0010997 199.5943 160.4813 14.21604608788741
YOUTHSAT                
1 37388U 11015B   26185.72434927  .00000267  00000+0  13004-3 0  9992
2 37388  98.3693 158.9885 0013320 292.8828 240.5477 14.25637882790136
APRIZESAT 6             
1 37793U 11044F   26185.69314662  .00001144  00000+0  16786-3 0  9998
2 37793  98.2348  96.5492 0043867  31.5223  26.4833 14.76945681799736
JUGNU                   
1 37839U 11058B   26186.22754291  .00000433  00000+0  86432-4 0  9996
2 37839  19.9587 198.8255 0018340 275.6943 166.0732 14.13781436761581
SRMSAT                  
1 37841U 11058D   26185.67445854  .00000423  00000+0  85792-4 0  9996
2 37841  19.9730 313.6268 0011851  36.6009 351.4175 14.11579530760299
